{
  "type": "FeatureCollection",
  "features": [
    {
      "type": "Feature",
      "properties": {
        "norad_id": 35901,
        "name": "COSMOS 2251 DEB",
        "group": "cosmos-2251-debris",
        "lat": 12.38682319256787,
        "lon": 43.517768120413145,
        "alt_km": 545.6585360494028,
        "timestamp": "2025-12-04T10:51:50.502898+00:00",
        "meta_object_name": "COSMOS 2251 DEB",
        "meta_object_id": "1993-036AUQ",
        "meta_epoch": "2025-12-03T22:49:43.591872",
        "meta_mean_motion": 15.05748254,
        "meta_eccentricity": 0.0006085,
        "meta_inclination": 74.0126,
        "meta_ra_of_asc_node": 40.937,
        "meta_arg_of_pericenter": 7.4259,
        "meta_mean_anomaly": 168.3379,
        "meta_ephemeris_type": 0,
        "meta_classification_type": "U",
        "meta_norad_cat_id": 35901,
        "meta_element_set_no": 999,
        "meta_rev_at_epoch": 85994,
        "meta_bstar": 0.0067796,
        "meta_mean_motion_dot": 0.00099573,
        "meta_mean_motion_ddot": 0,
        "tle_line1": "1 35901U 93036AUQ 25337.95119898  .00099573  00000+0  67796-2 0  9998",
        "tle_line2": "2 35901  74.0126  40.9370 0006085   7.4259 168.3379 15.05748254859942"
      },
      "geometry": {
        "type": "Point",
        "coordinates": [
          43.517768120413145,
          12.38682319256787
        ]
      }
    },
    {
      "type": "Feature",
      "properties": {
        "norad_id": 35902,
        "name": "COSMOS 2251 DEB",
        "group": "cosmos-2251-debris",
        "lat": 26.27099097629281,
        "lon": 61.473498951588674,
        "alt_km": 861.7960808838752,
        "timestamp": "2025-12-04T10:51:50.502909+00:00",
        "meta_object_name": "COSMOS 2251 DEB",
        "meta_object_id": "1993-036AUR",
        "meta_epoch": "2025-12-01T03:04:00.207552",
        "meta_mean_motion": 14.26791124,
        "meta_eccentricity": 0.01016301,
        "meta_inclination": 73.9836,
        "meta_ra_of_asc_node": 255.6555,
        "meta_arg_of_pericenter": 12.6385,
        "meta_mean_anomaly": 347.7274,
        "meta_ephemeris_type": 0,
        "meta_classification_type": "U",
        "meta_norad_cat_id": 35902,
        "meta_element_set_no": 999,
        "meta_rev_at_epoch": 60964,
        "meta_bstar": 0.0014097892,
        "meta_mean_motion_dot": 3.584e-05,
        "meta_mean_motion_ddot": 0,
        "tle_line1": "1 35902U 93036AUR 25335.12778018  .00003584  00000+0  14098-2 0  9995",
        "tle_line2": "2 35902  73.9836 255.6555 0101630  12.6385 347.7274 14.26791124609642"
      },
      "geometry": {
        "type": "Point",
        "coordinates": [
          61.473498951588674,
          26.27099097629281
        ]
      }
    },
    {
      "type": "Feature",
      "properties": {
        "norad_id": 35905,
        "name": "COSMOS 2251 DEB",
        "group": "cosmos-2251-debris",
        "lat": 58.812154678595576,
        "lon": 19.40310079508792,
        "alt_km": 626.1838573662399,
        "timestamp": "2025-12-04T10:51:50.502919+00:00",
        "meta_object_name": "COSMOS 2251 DEB",
        "meta_object_id": "1993-036AUU",
        "meta_epoch": "2025-12-03T23:07:38.819136",
        "meta_mean_motion": 14.98817132,
        "meta_eccentricity": 0.0091019,
        "meta_inclination": 74.0324,
        "meta_ra_of_asc_node": 228.6251,
        "meta_arg_of_pericenter": 310.7701,
        "meta_mean_anomaly": 48.5609,
        "meta_ephemeris_type": 0,
        "meta_classification_type": "U",
        "meta_norad_cat_id": 35905,
        "meta_element_set_no": 999,
        "meta_rev_at_epoch": 88451,
        "meta_bstar": 0.0011415,
        "meta_mean_motion_dot": 0.00015,
        "meta_mean_motion_ddot": 0,
        "tle_line1": "1 35905U 93036AUU 25337.96364374  .00015000  00000+0  11415-2 0  9994",
        "tle_line2": "2 35905  74.0324 228.6251 0091019 310.7701  48.5609 14.98817132884511"
      },
      "geometry": {
        "type": "Point",
        "coordinates": [
          19.40310079508792,
          58.812154678595576
        ]
      }
    },
    {
      "type": "Feature",
      "properties": {
        "norad_id": 35959,
        "name": "COSMOS 2251 DEB",
        "group": "cosmos-2251-debris",
        "lat": 19.14519110727495,
        "lon": -27.059171710804712,
        "alt_km": 764.6957196847361,
        "timestamp": "2025-12-04T10:51:50.502930+00:00",
        "meta_object_name": "COSMOS 2251 DEB",
        "meta_object_id": "1993-036AUZ",
        "meta_epoch": "2025-12-03T09:39:32.961312",
        "meta_mean_motion": 14.34124856,
        "meta_eccentricity": 0.00212071,
        "meta_inclination": 74.0321,
        "meta_ra_of_asc_node": 329.1579,
        "meta_arg_of_pericenter": 52.6115,
        "meta_mean_anomaly": 307.6963,
        "meta_ephemeris_type": 0,
        "meta_classification_type": "U",
        "meta_norad_cat_id": 35959,
        "meta_element_set_no": 999,
        "meta_rev_at_epoch": 84794,
        "meta_bstar": 0.00017921451,
        "meta_mean_motion_dot": 4.77e-06,
        "meta_mean_motion_ddot": 0,
        "tle_line1": "1 35959U 93036AUZ 25337.40246483  .00000477  00000+0  17921-3 0  9993",
        "tle_line2": "2 35959  74.0321 329.1579 0021207  52.6115 307.6963 14.34124856847942"
      },
      "geometry": {
        "type": "Point",
        "coordinates": [
          -27.059171710804712,
          19.14519110727495
        ]
      }
    },
    {
      "type": "Feature",
      "properties": {
        "norad_id": 35961,
        "name": "COSMOS 2251 DEB",
        "group": "cosmos-2251-debris",
        "lat": 73.58569059036304,
        "lon": -63.06947367610584,
        "alt_km": 811.9681885873715,
        "timestamp": "2025-12-04T10:51:50.502940+00:00",
        "meta_object_name": "COSMOS 2251 DEB",
        "meta_object_id": "1993-036AVB",
        "meta_epoch": "2025-11-29T09:08:47.173056",
        "meta_mean_motion": 14.05319505,
        "meta_eccentricity": 0.01924432,
        "meta_inclination": 73.9254,
        "meta_ra_of_asc_node": 227.671,
        "meta_arg_of_pericenter": 163.9834,
        "meta_mean_anomaly": 196.7506,
        "meta_ephemeris_type": 0,
        "meta_classification_type": "U",
        "meta_norad_cat_id": 35961,
        "meta_element_set_no": 999,
        "meta_rev_at_epoch": 62494,
        "meta_bstar": 0.00062484461,
        "meta_mean_motion_dot": 1.171e-05,
        "meta_mean_motion_ddot": 0,
        "tle_line1": "1 35961U 93036AVB 25333.38110154  .00001171  00000+0  62484-3 0  9990",
        "tle_line2": "2 35961  73.9254 227.6710 0192443 163.9834 196.7506 14.05319505624940"
      },
      "geometry": {
        "type": "Point",
        "coordinates": [
          -63.06947367610584,
          73.58569059036304
        ]
      }
    },
    {
      "type": "Feature",
      "properties": {
        "norad_id": 35979,
        "name": "COSMOS 2251 DEB",
        "group": "cosmos-2251-debris",
        "lat": 68.57216095291103,
        "lon": -58.469993062217604,
        "alt_km": 611.5471646162005,
        "timestamp": "2025-12-04T10:51:50.502950+00:00",
        "meta_object_name": "COSMOS 2251 DEB",
        "meta_object_id": "1993-036AVV",
        "meta_epoch": "2025-12-04T00:49:14.760768",
        "meta_mean_motion": 14.74451194,
        "meta_eccentricity": 0.0058683,
        "meta_inclination": 74.011,
        "meta_ra_of_asc_node": 255.4111,
        "meta_arg_of_pericenter": 29.5884,
        "meta_mean_anomaly": 345.1731,
        "meta_ephemeris_type": 0,
        "meta_classification_type": "U",
        "meta_norad_cat_id": 35979,
        "meta_element_set_no": 999,
        "meta_rev_at_epoch": 88505,
        "meta_bstar": 0.0021469,
        "meta_mean_motion_dot": 0.0001466,
        "meta_mean_motion_ddot": 0,
        "tle_line1": "1 35979U 93036AVV 25338.03419862  .00014660  00000+0  21469-2 0  9998",
        "tle_line2": "2 35979  74.0110 255.4111 0058683  29.5884 345.1731 14.74451194885053"
      },
      "geometry": {
        "type": "Point",
        "coordinates": [
          -58.469993062217604,
          68.57216095291103
        ]
      }
    },
    {
      "type": "Feature",
      "properties": {
        "norad_id": 35980,
        "name": "COSMOS 2251 DEB",
        "group": "cosmos-2251-debris",
        "lat": 48.630000741657746,
        "lon": 157.7280287195827,
        "alt_km": 719.2702473470417,
        "timestamp": "2025-12-04T10:51:50.502961+00:00",
        "meta_object_name": "COSMOS 2251 DEB",
        "meta_object_id": "1993-036AVW",
        "meta_epoch": "2025-12-02T19:08:08.015136",
        "meta_mean_motion": 14.59062146,
        "meta_eccentricity": 0.00537712,
        "meta_inclination": 73.91,
        "meta_ra_of_asc_node": 141.7735,
        "meta_arg_of_pericenter": 277.5645,
        "meta_mean_anomaly": 81.9413,
        "meta_ephemeris_type": 0,
        "meta_classification_type": "U",
        "meta_norad_cat_id": 35980,
        "meta_element_set_no": 999,
        "meta_rev_at_epoch": 61341,
        "meta_bstar": 0.002036555,
        "meta_mean_motion_dot": 9.752e-05,
        "meta_mean_motion_ddot": 0,
        "tle_line1": "1 35980U 93036AVW 25336.79731499  .00009752  00000+0  20366-2 0  9995",
        "tle_line2": "2 35980  73.9100 141.7735 0053771 277.5645  81.9413 14.59062146613413"
      },
      "geometry": {
        "type": "Point",
        "coordinates": [
          157.7280287195827,
          48.630000741657746
        ]
      }
    }
  ]
}